start=new Date('2023-05-15T00:00:00.000Z').valueOf();
sats=[{"ECCENTRICITY":"0.00010400","OBJECT_ID":"2022-017AD","OBJECT_TYPE":"PAYLOAD","GP_ID":"231858275","CLASSIFICATION_TYPE":"U","RCS_SIZE":"LARGE","OBJECT_NAME":"STARLINK-3586","MEAN_MOTION_DOT":"0.00003307","NORAD_CAT_ID":"51795","SEMIMAJOR_AXIS":"6917.855","MEAN_MOTION":"15.08848277","TLE_LINE1":"1 51795U 22017AD  23134.86280947  .00003307  00000-0  22569-3 0  9996","PERIAPSIS":"539.001","ELEMENT_SET_NO":"999","BSTAR":"0.00022569000000","EPHEMERIS_TYPE":"0","COUNTRY_CODE":"US","EPOCH":"2023-05-14T20:42:26.738208","PERIOD":"95.437","ARG_OF_PERICENTER":"84.3983","SITE":"AFWTR","LAUNCH_DATE":"2022-02-25","TIME_SYSTEM":"UTC","MEAN_MOTION_DDOT":"0.0000000000000","APOAPSIS":"540.440","DECAY_DATE":null,"CENTER_NAME":"EARTH","REV_AT_EPOCH":"6845","REF_FRAME":"TEME","MEAN_ANOMALY":"275.7128","TLE_LINE2":"2 51795  53.2162 292.1931 0001040  84.3983 275.7128 15.08848277 68450","FILE":"3908029","MEAN_ELEMENT_THEORY":"SGP4","INCLINATION":"53.2162","RA_OF_ASC_NODE":"292.1931"},{"COUNTRY_CODE":"US","EPHEMERIS_TYPE":"0","BSTAR":"0.00014312000000","ELEMENT_SET_NO":"999","TLE_LINE1":"1 51796U 22017AE  23134.84809320  .00001991  00000-0  14312-3 0  9991","PERIAPSIS":"538.957","MEAN_MOTION":"15.08837499","NORAD_CAT_ID":"51796","SEMIMAJOR_AXIS":"6917.888","MEAN_MOTION_DOT":"0.00001991","OBJECT_NAME":"STARLINK-3630","GP_ID":"231853661","CLASSIFICATION_TYPE":"U","RCS_SIZE":"LARGE","OBJECT_TYPE":"PAYLOAD","ECCENTRICITY":"0.00011510","OBJECT_ID":"2022-017AE","INCLINATION":"53.2178","RA_OF_ASC_NODE":"292.2591","MEAN_ELEMENT_THEORY":"SGP4","TLE_LINE2":"2 51796  53.2178 292.2591 0001151  90.0547 270.0577 15.08837499 68443","FILE":"3908005","REF_FRAME":"TEME","MEAN_ANOMALY":"270.0577","REV_AT_EPOCH":"6844","DECAY_DATE":null,"CENTER_NAME":"EARTH","MEAN_MOTION_DDOT":"0.0000000000000","APOAPSIS":"540.549","SITE":"AFWTR","TIME_SYSTEM":"UTC","LAUNCH_DATE":"2022-02-25","ARG_OF_PERICENTER":"90.0547","PERIOD":"95.438","EPOCH":"2023-05-14T20:21:15.252480"},{"RCS_SIZE":"LARGE","GP_ID":"231825108","CLASSIFICATION_TYPE":"U","OBJECT_NAME":"STARLINK-3627","OBJECT_ID":"2022-017AF","ECCENTRICITY":"0.00011970","OBJECT_TYPE":"PAYLOAD","MEAN_MOTION":"15.23890840","PERIAPSIS":"493.297","TLE_LINE1":"1 51797U 22017AF  23134.79128035  .00051322  00000-0  20977-2 0  9999","MEAN_MOTION_DOT":"0.00051322","SEMIMAJOR_AXIS":"6872.255","NORAD_CAT_ID":"51797","BSTAR":"0.00209770000000","ELEMENT_SET_NO":"999","EPHEMERIS_TYPE":"0","COUNTRY_CODE":"US","ARG_OF_PERICENTER":"230.4404","TIME_SYSTEM":"UTC","LAUNCH_DATE":"2022-02-25","SITE":"AFWTR","EPOCH":"2023-05-14T18:59:26.622240","PERIOD":"94.495","REV_AT_EPOCH":"6859","APOAPSIS":"494.943","MEAN_MOTION_DDOT":"0.0000000000000","CENTER_NAME":"EARTH","DECAY_DATE":null,"MEAN_ELEMENT_THEORY":"SGP4","RA_OF_ASC_NODE":"285.4108","INCLINATION":"53.2019","MEAN_ANOMALY":"129.6489","REF_FRAME":"TEME","TLE_LINE2":"2 51797  53.2019 285.4108 0001197 230.4404 129.6489 15.23890840 68591","FILE":"3907765"},{"OBJECT_TYPE":"PAYLOAD","ECCENTRICITY":"0.00010980","OBJECT_ID":"2022-017AG","OBJECT_NAME":"STARLINK-3634","GP_ID":"231825107","CLASSIFICATION_TYPE":"U","RCS_SIZE":"LARGE","NORAD_CAT_ID":"51798","SEMIMAJOR_AXIS":"6917.870","MEAN_MOTION_DOT":"0.00000090","TLE_LINE1":"1 51798U 22017AG  23134.84441221  .00000090  00000-0  23737-4 0  9996","PERIAPSIS":"538.976","MEAN_MOTION":"15.08843330","ELEMENT_SET_NO":"999","BSTAR":"0.00002373700000","COUNTRY_CODE":"US","EPHEMERIS_TYPE":"0","PERIOD":"95.437","EPOCH":"2023-05-14T20:15:57.214944","SITE":"AFWTR","TIME_SYSTEM":"UTC","LAUNCH_DATE":"2022-02-25","ARG_OF_PERICENTER":"94.0931","DECAY_DATE":null,"CENTER_NAME":"EARTH","MEAN_MOTION_DDOT":"0.0000000000000","APOAPSIS":"540.495","REV_AT_EPOCH":"6849","TLE_LINE2":"2 51798  53.2169 292.2755 0001098  94.0931 266.0187 15.08843330 68496","FILE":"3907765","MEAN_ANOMALY":"266.0187","REF_FRAME":"TEME","INCLINATION":"53.2169","RA_OF_ASC_NODE":"292.2755","MEAN_ELEMENT_THEORY":"SGP4"},{"EPHEMERIS_TYPE":"0","COUNTRY_CODE":"US","ELEMENT_SET_NO":"999","BSTAR":"0.00015324000000","MEAN_MOTION_DOT":"0.00002152","SEMIMAJOR_AXIS":"6917.864","NORAD_CAT_ID":"51799","MEAN_MOTION":"15.08845294","PERIAPSIS":"539.031","TLE_LINE1":"1 51799U 22017AH  23134.78920657  .00002152  00000-0  15324-3 0  9998","OBJECT_ID":"2022-017AH","ECCENTRICITY":"0.00010090","OBJECT_TYPE":"PAYLOAD","RCS_SIZE":"LARGE","GP_ID":"231824902","CLASSIFICATION_TYPE":"U","OBJECT_NAME":"STARLINK-3637","REF_FRAME":"TEME","MEAN_ANOMALY":"268.2157","FILE":"3907767","TLE_LINE2":"2 51799  53.2159 292.5211 0001009  91.8950 268.2157 15.08845294 68441","MEAN_ELEMENT_THEORY":"SGP4","RA_OF_ASC_NODE":"292.5211","INCLINATION":"53.2159","APOAPSIS":"540.427","MEAN_MOTION_DDOT":"0.0000000000000","CENTER_NAME":"EARTH","DECAY_DATE":null,"REV_AT_EPOCH":"6844","EPOCH":"2023-05-14T18:56:27.447648","PERIOD":"95.437","ARG_OF_PERICENTER":"91.8950","LAUNCH_DATE":"2022-02-25","TIME_SYSTEM":"UTC","SITE":"AFWTR"},{"ELEMENT_SET_NO":"999","BSTAR":"-0.00000839170000","EPHEMERIS_TYPE":"0","COUNTRY_CODE":"US","ECCENTRICITY":"0.00010550","OBJECT_ID":"2022-017AJ","OBJECT_TYPE":"PAYLOAD","GP_ID":"231854162","CLASSIFICATION_TYPE":"U","RCS_SIZE":"LARGE","OBJECT_NAME":"STARLINK-3600","MEAN_MOTION_DOT":"-0.00000421","NORAD_CAT_ID":"51800","SEMIMAJOR_AXIS":"6917.896","MEAN_MOTION":"15.08834849","TLE_LINE1":"1 51800U 22017AJ  23134.70089184 -.00000421  00000-0 -83917-5 0  9998","PERIAPSIS":"539.031","MEAN_MOTION_DDOT":"0.0000000000000","APOAPSIS":"540.491","DECAY_DATE":null,"CENTER_NAME":"EARTH","REV_AT_EPOCH":"6847","MEAN_ANOMALY":"283.8192","REF_FRAME":"TEME","FILE":"3908005","TLE_LINE2":"2 51800  53.2154 292.8720 0001055  76.2917 283.8192 15.08834849 68477","MEAN_ELEMENT_THEORY":"SGP4","INCLINATION":"53.2154","RA_OF_ASC_NODE":"292.8720","EPOCH":"2023-05-14T16:49:17.054976","PERIOD":"95.438","ARG_OF_PERICENTER":"76.2917","SITE":"AFWTR","LAUNCH_DATE":"2022-02-25","TIME_SYSTEM":"UTC"},{"PERIOD":"95.438","EPOCH":"2023-05-14T17:15:46.846944","TIME_SYSTEM":"UTC","LAUNCH_DATE":"2022-02-25","SITE":"AFWTR","ARG_OF_PERICENTER":"89.2382","FILE":"3908005","TLE_LINE2":"2 51801  53.2167 292.8377 0000943  89.2382 270.8718 15.08838641 68435","REF_FRAME":"TEME","MEAN_ANOMALY":"270.8718","RA_OF_ASC_NODE":"292.8377","INCLINATION":"53.2167","MEAN_ELEMENT_THEORY":"SGP4","CENTER_NAME":"EARTH","DECAY_DATE":null,"APOAPSIS":"540.402","MEAN_MOTION_DDOT":"0.0000000000000","REV_AT_EPOCH":"6843","SEMIMAJOR_AXIS":"6917.885","NORAD_CAT_ID":"51801","MEAN_MOTION_DOT":"0.00001542","PERIAPSIS":"539.097","TLE_LINE1":"1 51801U 22017AK  23134.71929221  .00001542  00000-0  11494-3 0  9997","MEAN_MOTION":"15.08838641","OBJECT_TYPE":"PAYLOAD","OBJECT_ID":"2022-017AK","ECCENTRICITY":"0.00009430","OBJECT_NAME":"STARLINK-3592","RCS_SIZE":"LARGE","GP_ID":"231854413","CLASSIFICATION_TYPE":"U","COUNTRY_CODE":"US","EPHEMERIS_TYPE":"0","ELEMENT_SET_NO":"999","BSTAR":"0.00011494000000"},{"APOAPSIS":"540.720","MEAN_MOTION_DDOT":"0.0000000000000","CENTER_NAME":"EARTH","DECAY_DATE":null,"REV_AT_EPOCH":"6844","REF_FRAME":"TEME","MEAN_ANOMALY":"255.6680","TLE_LINE2":"2 51802  53.2190 292.4492 0001389 104.4466 255.6680 15.08835451 68440","FILE":"3907767","MEAN_ELEMENT_THEORY":"SGP4","RA_OF_ASC_NODE":"292.4492","INCLINATION":"53.2190","EPOCH":"2023-05-14T19:17:40.128288","PERIOD":"95.438","ARG_OF_PERICENTER":"104.4466","LAUNCH_DATE":"2022-02-25","TIME_SYSTEM":"UTC","SITE":"AFWTR","ELEMENT_SET_NO":"999","BSTAR":"0.00000747520000","EPHEMERIS_TYPE":"0","COUNTRY_CODE":"US","OBJECT_ID":"2022-017AL","ECCENTRICITY":"0.00013890","OBJECT_TYPE":"PAYLOAD","RCS_SIZE":"LARGE","GP_ID":"231824899","CLASSIFICATION_TYPE":"U","OBJECT_NAME":"STARLINK-3557","MEAN_MOTION_DOT":"-0.00000169","SEMIMAJOR_AXIS":"6917.894","NORAD_CAT_ID":"51802","MEAN_MOTION":"15.08835451","PERIAPSIS":"538.798","TLE_LINE1":"1 51802U 22017AL  23134.80393667 -.00000169  00000-0  74752-5 0  9990"},{"REV_AT_EPOCH":"6844","DECAY_DATE":null,"CENTER_NAME":"EARTH","MEAN_MOTION_DDOT":"0.0000000000000","APOAPSIS":"540.518","INCLINATION":"53.2174","RA_OF_ASC_NODE":"292.2919","MEAN_ELEMENT_THEORY":"SGP4","FILE":"3908005","TLE_LINE2":"2 51803  53.2174 292.2919 0001137  89.0059 271.1063 15.08844492 68445","REF_FRAME":"TEME","MEAN_ANOMALY":"271.1063","SITE":"AFWTR","TIME_SYSTEM":"UTC","LAUNCH_DATE":"2022-02-25","ARG_OF_PERICENTER":"89.0059","PERIOD":"95.437","EPOCH":"2023-05-14T20:10:39.214560","BSTAR":"0.00003991800000","ELEMENT_SET_NO":"999","COUNTRY_CODE":"US","EPHEMERIS_TYPE":"0","OBJECT_NAME":"STARLINK-3544","GP_ID":"231853912","CLASSIFICATION_TYPE":"U","RCS_SIZE":"LARGE","OBJECT_TYPE":"PAYLOAD","ECCENTRICITY":"0.00011370","OBJECT_ID":"2022-017AM","TLE_LINE1":"1 51803U 22017AM  23134.84073165  .00000348  00000-0  39918-4 0  9995","PERIAPSIS":"538.945","MEAN_MOTION":"15.08844492","NORAD_CAT_ID":"51803","SEMIMAJOR_AXIS":"6917.867","MEAN_MOTION_DOT":"0.00000348"},{"RCS_SIZE":"LARGE","CLASSIFICATION_TYPE":"U","GP_ID":"231824928","OBJECT_NAME":"STARLINK-3601","OBJECT_ID":"2022-017AN","ECCENTRICITY":"0.00011850","OBJECT_TYPE":"PAYLOAD","MEAN_MOTION":"15.08839864","PERIAPSIS":"538.926","TLE_LINE1":"1 51804U 22017AN  23134.78737348  .00000208  00000-0  31152-4 0  9996","MEAN_MOTION_DOT":"0.00000208","SEMIMAJOR_AXIS":"6917.881","NORAD_CAT_ID":"51804","BSTAR":"0.00003115200000","ELEMENT_SET_NO":"999","EPHEMERIS_TYPE":"0","COUNTRY_CODE":"US","ARG_OF_PERICENTER":"99.8599","TIME_SYSTEM":"UTC","LAUNCH_DATE":"2022-02-25","SITE":"AFWTR","EPOCH":"2023-05-14T18:53:49.068672","PERIOD":"95.438","REV_AT_EPOCH":"6877","APOAPSIS":"540.566","MEAN_MOTION_DDOT":"0.0000000000000","CENTER_NAME":"EARTH","DECAY_DATE":null,"MEAN_ELEMENT_THEORY":"SGP4","RA_OF_ASC_NODE":"272.5268","INCLINATION":"53.2180","REF_FRAME":"TEME","MEAN_ANOMALY":"260.2527","FILE":"3907769","TLE_LINE2":"2 51804  53.2180 272.5268 0001185  99.8599 260.2527 15.08839864 68779"}];
